[ {"Asteroid": {"classification": {"orbitType": "sad", "spinPeriodH": 2.0480585254995076e+298, "type": {"A": 0.6897855687765981, "C": 0.26654481267957464, "B": 0.8839168716349929}, "albedo": 0.4608970745235428, "diameterKM": 73.9392685377398}, "name": "893dc605bc", "orbitals": {"eccentricity": 0.6968791702649102, "longitudeOfTheAscendingNode": 5.183797694774382, "semimajoraxisAU": 2.7835551665562557, "periodYEARS": 0.8210669745365077, "meanAnomaly": 1.825727750475451, "perihelionDATE": 166958916.7877776, "inclination": 3.1363115474617653, "argumentOfPerihelion": 5.501572314065074}, "details": {"bf5bgae03e": 22.32941282909044, "20egf5c1e5": 99.1953468840909, "geedd12gcd": 75.49952351172412, "2ae3gg1b09": 68.04671707561488, "d7dgea3926": 36.54845053219847, "30f4c1g9e3": 1.6443274787478885, "76f92b25gc": 19.21720481655558, "fe52864bc8": 74.62414984823324, "0d6669cbfc": 59.69974004610958, "3042496dd2": 60.648577057419246, "60af48e5c7": 29.981860529522915, "9c973a6e28": 81.4563331197924, "0g062111b6": 10.335358334345074, "103267f136": 81.03983032872456, "d32b175c9a": 47.16309914710604, "115217507c": 12.684070215722782, "6d88ba30g2": 3.0669468037181096, "fa29c58ac8": 14.00927337161866, "91c252f0dg": 35.20971144328831}}}, {"Asteroid": {"classification": {"orbitType": "stupid", "spinPeriodH": 7.186906781946182e+299, "type": {"A": 0.7140037643374066, "C": 0.7616947982038565, "B": 0.44316038030054994}, "albedo": 0.03362966718108984, "diameterKM": 82.90053602594242}, "name": "0gdeea6f73", "orbitals": {"eccentricity": 0.9818307272805367, "longitudeOfTheAscendingNode": 3.536894837552765, "semimajoraxisAU": 3.471848587025729, "periodYEARS": 9.8229078104305, "meanAnomaly": 1.8849583072978318, "perihelionDATE": 295051939.22109765, "inclination": 1.8735663100427167, "argumentOfPerihelion": 1.3258034483536298}, "details": {"f82ed67033": 45.77917170575392}}}, {"Asteroid": {"classification": {"orbitType": "mad", "spinPeriodH": 4.8190841679216835e+298, "type": {"A": 0.9685303605668175, "C": 0.4130493613043149, "B": 0.16128956231792213}, "albedo": 0.4280983159339108, "diameterKM": 17.487116873784668}, "name": "40ac50f1db", "orbitals": {"eccentricity": 0.8239436530468223, "longitudeOfTheAscendingNode": 4.1733378991306225, "semimajoraxisAU": 3.368172319550636, "periodYEARS": 4.483145949546964, "meanAnomaly": 1.0747874720212265, "perihelionDATE": 127829523.36419997, "inclination": 1.998450098140467, "argumentOfPerihelion": 5.166440905687057}, "details": {"85d9ca027a": 35.09292572113226, "57aa58d6d4": 94.36910067554854, "4955e8ga96": 74.68870776456801, "64386969f3": 69.43633659810659, "48gb5b95gb": 99.78694871199399, "edd94261e3": 10.707759821264197, "801c0b43af": 30.36465928221359, "f080711a61": 96.4704874430498}}}, {"Asteroid": {"classification": {"orbitType": "whiny", "spinPeriodH": 1.934806489165739e+299, "type": {"A": 0.9671918022469518, "C": 0.3118887911290892, "B": 0.9227051406349137}, "albedo": 0.14031138469630422, "diameterKM": 58.57070157699286}, "name": "5bd43gafcd", "orbitals": {"eccentricity": 0.30485230565587496, "longitudeOfTheAscendingNode": 1.237683420027282, "semimajoraxisAU": 3.711142291967815, "periodYEARS": 8.99600793023671, "meanAnomaly": 2.400175664572532, "perihelionDATE": 202264641.92215145, "inclination": 1.521187663623138, "argumentOfPerihelion": 2.7753175519964777}, "details": {"03c44dcc42": 21.487030370980918, "7gb5a6c817": 83.40603169231018, "2817c8ee8f": 80.02697859568113, "9449fafb53": 67.88657262445241, "b090g9379g": 31.963965206521138, "b3g261197b": 13.910567423300273, "f5e7g2de1g": 57.651594800787564}}}, {"Asteroid": {"classification": {"orbitType": "stupid", "spinPeriodH": 5.82971411290284e+298, "type": {"A": 0.9504972530498764, "C": 0.19535509707329834, "B": 0.8956093221417635}, "albedo": 0.12261248702732819, "diameterKM": 68.07415788484326}, "name": "2e3fc1817f", "orbitals": {"eccentricity": 0.660802644692181, "longitudeOfTheAscendingNode": 2.134139513396848, "semimajoraxisAU": 4.958378166057248, "periodYEARS": 8.890987312097725, "meanAnomaly": 1.7103169990675688, "perihelionDATE": 102738858.2185504, "inclination": 2.7520027437788195, "argumentOfPerihelion": 0.8166699508863413}, "details": {"859220716g": 93.26397262466814, "d890c348ae": 29.4807009014243, "0e3987g8fa": 99.94376268360807, "9903b2ca47": 38.60484587701321, "280088fd40": 64.89569567311031, "ef3b8b775f": 57.97256568511243, "c778746gb2": 1.4276265551435268}}}, {"Asteroid": {"classification": {"orbitType": "whiny", "spinPeriodH": 9.484302816401048e+299, "type": {"A": 0.9103405704115902, "C": 0.9345663470967162, "B": 0.2327022393843402}, "albedo": 0.15054934374032947, "diameterKM": 30.859347640005172}, "name": "3f04097ec2", "orbitals": {"eccentricity": 0.06901022505237808, "longitudeOfTheAscendingNode": 3.755262382889878, "semimajoraxisAU": 3.1500365905530527, "periodYEARS": 5.228045582281125, "meanAnomaly": 1.4144183584215024, "perihelionDATE": 286842243.6983304, "inclination": 1.0944986140822692, "argumentOfPerihelion": 1.236536565100315}, "details": {"e865949724": 48.81547264406404, "ac493c2c4f": 87.98740038596813, "06e2caaf94": 8.344831161008381}}}, {"Asteroid": {"classification": {"orbitType": "stupid", "spinPeriodH": 1.2889879783705993e+299, "type": {"A": 0.3213311375763963, "C": 0.01917712340326927, "B": 0.07913953980050281}, "albedo": 0.9008982143769481, "diameterKM": 52.414678759152906}, "name": "e75f0cc602", "orbitals": {"eccentricity": 0.7474925315448654, "longitudeOfTheAscendingNode": 5.706596862493429, "semimajoraxisAU": 4.2135431138572805, "periodYEARS": 2.601137312711307, "meanAnomaly": 0.6817020556826578, "perihelionDATE": 130700228.73647615, "inclination": 1.6786862179577429, "argumentOfPerihelion": 0.7940259841047727}, "details": {"65fa7cc2b1": 97.4207543650518, "b898b58db8": 10.021305361726862, "68a2e5d6cf": 83.7792236820949, "435g545g06": 22.87269513304112, "57365768a1": 36.41963413785582, "7e3g65a3bb": 31.587272663632685, "78g2775302": 46.42431764433682, "a0fc85fg0b": 77.91401252395093, "19d9ef5g22": 38.026782075857035, "45c5befg5g": 3.014467033681584, "8321e2cd40": 79.37704652731381, "e32018145f": 52.082443253124914, "845b27642c": 4.2881388552852435, "964b8g3eb2": 5.7009859177455695, "7b18be3b34": 67.89660069181625}}}, {"Asteroid": {"classification": {"orbitType": "stupid", "spinPeriodH": 4.487113143418199e+299, "type": {"A": 0.6424375463874377, "C": 0.40206295520008783, "B": 0.7491278725875518}, "albedo": 0.3650753016019411, "diameterKM": 27.484824908154536}, "name": "963c36gd6f", "orbitals": {"eccentricity": 0.7300824897564775, "longitudeOfTheAscendingNode": 0.9946371767388449, "semimajoraxisAU": 4.673865252008701, "periodYEARS": 8.846075058785717, "meanAnomaly": 2.650119383333679, "perihelionDATE": 50282939.10622981, "inclination": 1.4862954565484832, "argumentOfPerihelion": 3.3518740939695735}, "details": {"48f1a11baa": 47.10096837496385, "3e3ad484e1": 16.224303390963904, "edfa2cdf72": 17.397931266851927, "a0g5da977e": 13.74658985655003, "52fa7egcc2": 59.018069223392516, "fe2d8aec31": 83.63611551366701, "371ad9b0df": 93.05208309556507, "b901dd5914": 43.39740112855011, "899dg0e7dc": 9.354464480811943, "f7cb5c1f91": 19.454953264206342, "g949d89604": 49.10276942905368, "776723g363": 77.11813541926256}}}, {"Asteroid": {"classification": {"orbitType": "tiny", "spinPeriodH": 9.063355459202235e+299, "type": {"A": 0.8492503386502637, "C": 0.8864407453898934, "B": 0.3724655685833258}, "albedo": 0.7438918301640943, "diameterKM": 58.16482219304103}, "name": "0efbag4840", "orbitals": {"eccentricity": 0.7585766535111831, "longitudeOfTheAscendingNode": 6.257695941043283, "semimajoraxisAU": 4.250925008906703, "periodYEARS": 2.75424202787433, "meanAnomaly": 1.3929538162463266, "perihelionDATE": 1193886.8851884308, "inclination": 2.448147798887549, "argumentOfPerihelion": 0.16916084168110485}, "details": {"2ccf2edg04": 77.18963546375403, "d23dgd7e09": 8.984842037847525, "4e755b63da": 75.49477442917873}}}, {"Asteroid": {"classification": {"orbitType": "stupid", "spinPeriodH": 7.438290800171788e+299, "type": {"A": 0.4709916030904294, "C": 0.0726544739291306, "B": 0.2311185637299369}, "albedo": 0.5843929888031494, "diameterKM": 9.922759497081696}, "name": "e370796119", "orbitals": {"eccentricity": 0.03786958018802078, "longitudeOfTheAscendingNode": 2.1686773014572642, "semimajoraxisAU": 3.4562578050195243, "periodYEARS": 9.819011373764678, "meanAnomaly": 0.5444024174606112, "perihelionDATE": 167175699.39881805, "inclination": 0.8905188165368333, "argumentOfPerihelion": 2.3068959243490577}, "details": {"9d37f8d6e1": 24.377941238382903, "d288772ea0": 78.95677962329687, "7f02a420a6": 95.36887454588499, "80c3gb61g9": 59.326970574563575, "2653888e0d": 35.772430993761986, "f4fe7g5eba": 67.12182281152361, "8293256107": 84.16654188122406, "589e9809g8": 94.1278840110684, "e881ge1746": 97.97218297686851, "51ef284gdb": 87.95588163305514, "8fe7a9606c": 4.382397355238307, "7b136f6ge7": 24.05363288194646, "841059bbc0": 78.54268504530538, "08825cb92b": 75.31475731190118, "dfb07ga638": 19.767883570469596, "0e0b6dgg58": 73.71755705236285, "e223g892ee": 59.26163475329734, "ad16dfc510": 24.451541624111787}}}, {"Asteroid": {"classification": {"orbitType": "smelly", "spinPeriodH": 7.541662131392972e+299, "type": {"A": 0.29504691848102194, "C": 0.6807183009280183, "B": 0.5566937440265503}, "albedo": 0.5639045663473623, "diameterKM": 16.163086856540254}, "name": "g24474724b", "orbitals": {"eccentricity": 0.5355107640327388, "longitudeOfTheAscendingNode": 5.796978217602617, "semimajoraxisAU": 4.705696745184484, "periodYEARS": 4.140630276181596, "meanAnomaly": 1.7912885906774096, "perihelionDATE": 99299930.07787855, "inclination": 1.5387686237931748, "argumentOfPerihelion": 2.03873039849184}, "details": {"8c5577e482": 24.15964540485834, "948bbbdcag": 22.009391709155825}}}]
